[{"OBJECT_NAME":"TECHDEMOSAT-1 (TDS-1)","OBJECT_ID":"2014-037H","EPOCH":"2026-03-09T22:08:12.399936","MEAN_MOTION":15.11581991,"ECCENTRICITY":0.0004745,"INCLINATION":98.3776,"RA_OF_ASC_NODE":51.4583,"ARG_OF_PERICENTER":234.81,"MEAN_ANOMALY":125.2683,"EPHEMERIS_TYPE":0,"CLASSIFICATION_TYPE":"U","NORAD_CAT_ID":40076,"ELEMENT_SET_NO":999,"REV_AT_EPOCH":63322,"BSTAR":0.00065800271,"MEAN_MOTION_DOT":0.00011104,"MEAN_MOTION_DDOT":0},{"OBJECT_NAME":"STARLINK-4636","OBJECT_ID":"2022-107AH","EPOCH":"2026-03-09T21:32:58.902144","MEAN_MOTION":15.11900784,"ECCENTRICITY":0.00053969,"INCLINATION":53.213,"RA_OF_ASC_NODE":252.5823,"ARG_OF_PERICENTER":143.7657,"MEAN_ANOMALY":216.3703,"EPHEMERIS_TYPE":0,"CLASSIFICATION_TYPE":"U","NORAD_CAT_ID":53731,"ELEMENT_SET_NO":999,"REV_AT_EPOCH":19462,"BSTAR":0.0016595438,"MEAN_MOTION_DOT":0.00028566,"MEAN_MOTION_DDOT":0}]
